[{"OBJECT_NAME":"STARLINK-1094","OBJECT_ID":"2020-001AD","EPOCH":"2026-03-09T22:40:26.113152","MEAN_MOTION":15.30181946,"ECCENTRICITY":0.00013179,"INCLINATION":53.1603,"RA_OF_ASC_NODE":318.3807,"ARG_OF_PERICENTER":76.5708,"MEAN_ANOMALY":283.5439,"EPHEMERIS_TYPE":0,"CLASSIFICATION_TYPE":"U","NORAD_CAT_ID":44941,"ELEMENT_SET_NO":999,"REV_AT_EPOCH":34027,"BSTAR":-8.227902e-5,"MEAN_MOTION_DOT":-2.794e-5,"MEAN_MOTION_DDOT":0},{"OBJECT_NAME":"OBJECT AL","OBJECT_ID":"2023-085AL","EPOCH":"2026-03-09T22:26:04.970400","MEAN_MOTION":15.31857284,"ECCENTRICITY":0.000802,"INCLINATION":97.4839,"RA_OF_ASC_NODE":180.0127,"ARG_OF_PERICENTER":78.7242,"MEAN_ANOMALY":281.49,"EPHEMERIS_TYPE":0,"CLASSIFICATION_TYPE":"U","NORAD_CAT_ID":57038,"ELEMENT_SET_NO":999,"REV_AT_EPOCH":15154,"BSTAR":0.0006591637,"MEAN_MOTION_DOT":0.00020246,"MEAN_MOTION_DDOT":0}]
